[{"OBJECT_NAME":"COSMOS 2588","OBJECT_ID":"2025-109A","EPOCH":"2026-03-09T19:28:59.107008","MEAN_MOTION":15.29122656,"ECCENTRICITY":0.0005019,"INCLINATION":72.9704,"RA_OF_ASC_NODE":73.5401,"ARG_OF_PERICENTER":308.678,"MEAN_ANOMALY":51.3966,"EPHEMERIS_TYPE":0,"CLASSIFICATION_TYPE":"U","NORAD_CAT_ID":64095,"ELEMENT_SET_NO":999,"REV_AT_EPOCH":4442,"BSTAR":0.00032611,"MEAN_MOTION_DOT":9.169e-5,"MEAN_MOTION_DDOT":0},{"OBJECT_NAME":"STARLINK-35089","OBJECT_ID":"2025-195AC","EPOCH":"2026-03-09T21:56:21.993216","MEAN_MOTION":15.30194313,"ECCENTRICITY":0.00011264,"INCLINATION":53.1615,"RA_OF_ASC_NODE":257.428,"ARG_OF_PERICENTER":333.8824,"MEAN_ANOMALY":26.212,"EPHEMERIS_TYPE":0,"CLASSIFICATION_TYPE":"U","NORAD_CAT_ID":65484,"ELEMENT_SET_NO":999,"REV_AT_EPOCH":3000,"BSTAR":0.00094089997,"MEAN_MOTION_DOT":0.00027606,"MEAN_MOTION_DDOT":0}]
